
[{"ORDINAL":"3","COMMENT":"GENERATED VIA SPACETRACK.ORG API","ORIGINATOR":"JSPOC","NORAD_CAT_ID":"40049","OBJECT_NAME":"SL-24 PLAT","OBJECT_TYPE":"DEBRIS","CLASSIFICATION_TYPE":"U","INTLDES":"14033AR","EPOCH":"2015-04-08 11:16:50","EPOCH_MICROSECONDS":"515968","MEAN_MOTION":"14.862252","ECCENTRICITY":"0.0014762","INCLINATION":"97.967","RA_OF_ASC_NODE":"358.6369","ARG_OF_PERICENTER":"48.8721","MEAN_ANOMALY":"311.3757","EPHEMERIS_TYPE":"0","ELEMENT_SET_NO":"999","REV_AT_EPOCH":"4328","BSTAR":"0.00031018","MEAN_MOTION_DOT":"2.675e-05","MEAN_MOTION_DDOT":"0","FILE":"1852911","TLE_LINE0":"0 SL-24 PLAT","TLE_LINE1":"1 40049U 14033AR  15098.47002912  .00002675  00000-0  31018-3 0  9992","TLE_LINE2":"2 40049 097.9670 358.6369 0014762 048.8721 311.3757 14.86225200 43281","OBJECT_ID":"2014-033AR","OBJECT_NUMBER":"40049"},{"ORDINAL":"2","COMMENT":"GENERATED VIA SPACETRACK.ORG API","ORIGINATOR":"JSPOC","NORAD_CAT_ID":"40288","OBJECT_NAME":"CZ-2C DEB","OBJECT_TYPE":"DEBRIS","CLASSIFICATION_TYPE":"U","INTLDES":"14066C","EPOCH":"2015-04-08 11:45:52","EPOCH_MICROSECONDS":"905023","MEAN_MOTION":"14.18852888","ECCENTRICITY":"0.0191675","INCLINATION":"97.9722","RA_OF_ASC_NODE":"201.4768","ARG_OF_PERICENTER":"52.3636","MEAN_ANOMALY":"309.4764","EPHEMERIS_TYPE":"0","ELEMENT_SET_NO":"999","REV_AT_EPOCH":"2313","BSTAR":"0.00090523","MEAN_MOTION_DOT":"2.224e-05","MEAN_MOTION_DDOT":"0","FILE":"1852921","TLE_LINE0":"0 CZ-2C DEB","TLE_LINE1":"1 40288U 14066C   15098.49019566  .00002224  00000-0  90523-3 0  9994","TLE_LINE2":"2 40288 097.9722 201.4768 0191675 052.3636 309.4764 14.18852888 23137","OBJECT_ID":"2014-066C","OBJECT_NUMBER":"40288"},{"ORDINAL":"2","COMMENT":"GENERATED VIA SPACETRACK.ORG API","ORIGINATOR":"JSPOC","NORAD_CAT_ID":"39627","OBJECT_NAME":"CZ-2C DEB","OBJECT_TYPE":"DEBRIS","CLASSIFICATION_TYPE":"U","INTLDES":"14014D","EPOCH":"2015-04-08 12:26:37","EPOCH_MICROSECONDS":"635360","MEAN_MOTION":"14.21047842","ECCENTRICITY":"0.0185019","INCLINATION":"98.0468","RA_OF_ASC_NODE":"125.1413","ARG_OF_PERICENTER":"154.3894","MEAN_ANOMALY":"206.6594","EPHEMERIS_TYPE":"0","ELEMENT_SET_NO":"999","REV_AT_EPOCH":"5299","BSTAR":"0.00063134","MEAN_MOTION_DOT":"1.59e-05","MEAN_MOTION_DDOT":"0","FILE":"1853129","TLE_LINE0":"0 CZ-2C DEB","TLE_LINE1":"1 39627U 14014D   15098.51849115  .00001590  00000-0  63134-3 0  9999","TLE_LINE2":"2 39627 098.0468 125.1413 0185019 154.3894 206.6594 14.21047842 52999","OBJECT_ID":"2014-014D","OBJECT_NUMBER":"39627"},{"ORDINAL":"4","COMMENT":"GENERATED VIA SPACETRACK.ORG API","ORIGINATOR":"JSPOC","NORAD_CAT_ID":"40149","OBJECT_NAME":"ARIANE 5 DEB (SYLDA)","OBJECT_TYPE":"DEBRIS","CLASSIFICATION_TYPE":"U","INTLDES":"14054D","EPOCH":"2015-04-08 14:39:19","EPOCH_MICROSECONDS":"170720","MEAN_MOTION":"2.39766256","ECCENTRICITY":"0.7201815","INCLINATION":"6.1481","RA_OF_ASC_NODE":"59.962","ARG_OF_PERICENTER":"353.392","MEAN_ANOMALY":"0.6023","EPHEMERIS_TYPE":"0","ELEMENT_SET_NO":"999","REV_AT_EPOCH":"485","BSTAR":"0.01034","MEAN_MOTION_DOT":"0.00077296","MEAN_MOTION_DDOT":"0","FILE":"1853051","TLE_LINE0":"0 ARIANE 5 DEB (SYLDA)","TLE_LINE1":"1 40149U 14054D   15098.61063855  .00077296  00000-0  10340-1 0  9999","TLE_LINE2":"2 40149 006.1481 059.9620 7201815 353.3920 000.6023 02.39766256  4854","OBJECT_ID":"2014-054D","OBJECT_NUMBER":"40149"},{"ORDINAL":"2","COMMENT":"GENERATED VIA SPACETRACK.ORG API","ORIGINATOR":"JSPOC","NORAD_CAT_ID":"40149","OBJECT_NAME":"ARIANE 5 DEB (SYLDA)","OBJECT_TYPE":"DEBRIS","CLASSIFICATION_TYPE":"U","INTLDES":"14054D","EPOCH":"2015-04-08 14:44:11","EPOCH_MICROSECONDS":"235552","MEAN_MOTION":"2.39736649","ECCENTRICITY":"0.7200816","INCLINATION":"6.1721","RA_OF_ASC_NODE":"59.6807","ARG_OF_PERICENTER":"353.6689","MEAN_ANOMALY":"3.4731","EPHEMERIS_TYPE":"0","ELEMENT_SET_NO":"999","REV_AT_EPOCH":"485","BSTAR":"0.01332","MEAN_MOTION_DOT":"0.00092603","MEAN_MOTION_DDOT":"0","FILE":"1853271","TLE_LINE0":"0 ARIANE 5 DEB (SYLDA)","TLE_LINE1":"1 40149U 14054D   15098.61401893  .00092603  00000-0  13320-1 0  9997","TLE_LINE2":"2 40149 006.1721 059.6807 7200816 353.6689 003.4731 02.39736649  4850","OBJECT_ID":"2014-054D","OBJECT_NUMBER":"40149"},{"ORDINAL":"5","COMMENT":"GENERATED VIA SPACETRACK.ORG API","ORIGINATOR":"JSPOC","NORAD_CAT_ID":"40274","OBJECT_NAME":"ARIANE 5 DEB (SYLDA)","OBJECT_TYPE":"DEBRIS","CLASSIFICATION_TYPE":"U","INTLDES":"14062D","EPOCH":"2015-04-08 15:39:05","EPOCH_MICROSECONDS":"765183","MEAN_MOTION":"2.37548107","ECCENTRICITY":"0.7221664","INCLINATION":"5.9839","RA_OF_ASC_NODE":"102.7111","ARG_OF_PERICENTER":"325.6347","MEAN_ANOMALY":"3.9165","EPHEMERIS_TYPE":"0","ELEMENT_SET_NO":"999","REV_AT_EPOCH":"402","BSTAR":"0.0072667","MEAN_MOTION_DOT":"0.0006233","MEAN_MOTION_DDOT":"0","FILE":"1853180","TLE_LINE0":"0 ARIANE 5 DEB (SYLDA)","TLE_LINE1":"1 40274U 14062D   15098.65215006  .00062330  00000-0  72667-2 0  9992","TLE_LINE2":"2 40274 005.9839 102.7111 7221664 325.6347 003.9165 02.37548107  4021","OBJECT_ID":"2014-062D","OBJECT_NUMBER":"40274"},{"ORDINAL":"4","COMMENT":"GENERATED VIA SPACETRACK.ORG API","ORIGINATOR":"JSPOC","NORAD_CAT_ID":"40291","OBJECT_NAME":"CZ-2C DEB","OBJECT_TYPE":"DEBRIS","CLASSIFICATION_TYPE":"U","INTLDES":"14066F","EPOCH":"2015-04-08 16:01:52","EPOCH_MICROSECONDS":"81823","MEAN_MOTION":"14.22396675","ECCENTRICITY":"0.0178891","INCLINATION":"98.4555","RA_OF_ASC_NODE":"211.0157","ARG_OF_PERICENTER":"52.2466","MEAN_ANOMALY":"309.5259","EPHEMERIS_TYPE":"0","ELEMENT_SET_NO":"999","REV_AT_EPOCH":"2321","BSTAR":"0.0005586","MEAN_MOTION_DOT":"1.464e-05","MEAN_MOTION_DDOT":"0","FILE":"1852953","TLE_LINE0":"0 CZ-2C DEB","TLE_LINE1":"1 40291U 14066F   15098.66796391  .00001464  00000-0  55860-3 0  9995","TLE_LINE2":"2 40291 098.4555 211.0157 0178891 052.2466 309.5259 14.22396675 23216","OBJECT_ID":"2014-066F","OBJECT_NUMBER":"40291"},{"ORDINAL":"3","COMMENT":"GENERATED VIA SPACETRACK.ORG API","ORIGINATOR":"JSPOC","NORAD_CAT_ID":"39511","OBJECT_NAME":"ARIANE 5 DEB (SYLDA)","OBJECT_TYPE":"DEBRIS","CLASSIFICATION_TYPE":"U","INTLDES":"14006D","EPOCH":"2015-04-08 16:41:22","EPOCH_MICROSECONDS":"456320","MEAN_MOTION":"2.63569319","ECCENTRICITY":"0.6997271","INCLINATION":"5.9215","RA_OF_ASC_NODE":"88.9664","ARG_OF_PERICENTER":"202.7065","MEAN_ANOMALY":"97.7695","EPHEMERIS_TYPE":"0","ELEMENT_SET_NO":"999","REV_AT_EPOCH":"1030","BSTAR":"0.0024374","MEAN_MOTION_DOT":"7.515e-05","MEAN_MOTION_DDOT":"0","FILE":"1853158","TLE_LINE0":"0 ARIANE 5 DEB (SYLDA)","TLE_LINE1":"1 39511U 14006D   15098.69539880  .00007515  00000-0  24374-2 0  9991","TLE_LINE2":"2 39511 005.9215 088.9664 6997271 202.7065 097.7695 02.63569319 10308","OBJECT_ID":"2014-006D","OBJECT_NUMBER":"39511"},{"ORDINAL":"4","COMMENT":"GENERATED VIA SPACETRACK.ORG API","ORIGINATOR":"JSPOC","NORAD_CAT_ID":"39619","OBJECT_NAME":"ARIANE 5 DEB (SYLDA)","OBJECT_TYPE":"DEBRIS","CLASSIFICATION_TYPE":"U","INTLDES":"14011D","EPOCH":"2015-04-08 17:14:39","EPOCH_MICROSECONDS":"745247","MEAN_MOTION":"2.85173663","ECCENTRICITY":"0.6846237","INCLINATION":"2.5716","RA_OF_ASC_NODE":"159.5013","ARG_OF_PERICENTER":"170.9766","MEAN_ANOMALY":"214.7265","EPHEMERIS_TYPE":"0","ELEMENT_SET_NO":"999","REV_AT_EPOCH":"937","BSTAR":"0.0074414","MEAN_MOTION_DOT":"0.00040607","MEAN_MOTION_DDOT":"0","FILE":"1853303","TLE_LINE0":"0 ARIANE 5 DEB (SYLDA)","TLE_LINE1":"1 39619U 14011D   15098.71851557  .00040607  00000-0  74414-2 0  9996","TLE_LINE2":"2 39619 002.5716 159.5013 6846237 170.9766 214.7265 02.85173663  9374","OBJECT_ID":"2014-011D","OBJECT_NUMBER":"39619"},{"ORDINAL":"5","COMMENT":"GENERATED VIA SPACETRACK.ORG API","ORIGINATOR":"JSPOC","NORAD_CAT_ID":"40048","OBJECT_NAME":"SL-24 DEB","OBJECT_TYPE":"DEBRIS","CLASSIFICATION_TYPE":"U","INTLDES":"14033AQ","EPOCH":"2015-04-08 17:20:10","EPOCH_MICROSECONDS":"462847","MEAN_MOTION":"15.05451116","ECCENTRICITY":"0.0040776","INCLINATION":"97.9689","RA_OF_ASC_NODE":"5.3144","ARG_OF_PERICENTER":"95.3073","MEAN_ANOMALY":"265.1896","EPHEMERIS_TYPE":"0","ELEMENT_SET_NO":"999","REV_AT_EPOCH":"4387","BSTAR":"0.0018258","MEAN_MOTION_DOT":"0.00026729","MEAN_MOTION_DDOT":"0","FILE":"1853356","TLE_LINE0":"0 SL-24 DEB","TLE_LINE1":"1 40048U 14033AQ  15098.72234332  .00026729  00000-0  18258-2 0  9998","TLE_LINE2":"2 40048 097.9689 005.3144 0040776 095.3073 265.1896 15.05451116 43872","OBJECT_ID":"2014-033AQ","OBJECT_NUMBER":"40048"},{"ORDINAL":"3","COMMENT":"GENERATED VIA SPACETRACK.ORG API","ORIGINATOR":"JSPOC","NORAD_CAT_ID":"39628","OBJECT_NAME":"CZ-2C DEB","OBJECT_TYPE":"DEBRIS","CLASSIFICATION_TYPE":"U","INTLDES":"14014E","EPOCH":"2015-04-08 17:48:15","EPOCH_MICROSECONDS":"242976","MEAN_MOTION":"14.50139558","ECCENTRICITY":"0.0109978","INCLINATION":"98.4555","RA_OF_ASC_NODE":"159.135","ARG_OF_PERICENTER":"168.8701","MEAN_ANOMALY":"191.5451","EPHEMERIS_TYPE":"0","ELEMENT_SET_NO":"999","REV_AT_EPOCH":"5409","BSTAR":"0.0005853","MEAN_MOTION_DOT":"2.456e-05","MEAN_MOTION_DDOT":"0","FILE":"1853074","TLE_LINE0":"0 CZ-2C DEB","TLE_LINE1":"1 39628U 14014E   15098.74184309  .00002456  00000-0  58530-3 0  9998","TLE_LINE2":"2 39628 098.4555 159.1350 0109978 168.8701 191.5451 14.50139558 54090","OBJECT_ID":"2014-014E","OBJECT_NUMBER":"39628"},{"ORDINAL":"5","COMMENT":"GENERATED VIA SPACETRACK.ORG API","ORIGINATOR":"JSPOC","NORAD_CAT_ID":"39615","OBJECT_NAME":"BREEZE-M DEB (TANK)","OBJECT_TYPE":"DEBRIS","CLASSIFICATION_TYPE":"U","INTLDES":"14010D","EPOCH":"2015-04-08 19:01:48","EPOCH_MICROSECONDS":"539424","MEAN_MOTION":"2.557782","ECCENTRICITY":"0.7113697","INCLINATION":"48.4051","RA_OF_ASC_NODE":"60.9996","ARG_OF_PERICENTER":"97.7133","MEAN_ANOMALY":"341.112","EPHEMERIS_TYPE":"0","ELEMENT_SET_NO":"999","REV_AT_EPOCH":"888","BSTAR":"0.0006799","MEAN_MOTION_DOT":"0.00159935","MEAN_MOTION_DDOT":"-1.9166e-07","FILE":"1853394","TLE_LINE0":"0 BREEZE-M DEB (TANK)","TLE_LINE1":"1 39615U 14010D   15098.79292291  .00159935 -19166-6  67990-3 0  9990","TLE_LINE2":"2 39615 048.4051 060.9996 7113697 097.7133 341.1120 02.55778200  8883","OBJECT_ID":"2014-010D","OBJECT_NUMBER":"39615"}]